{
  "type": "FeatureCollection",
  "features": [
    {
      "type": "Feature",
      "properties": {
        "norad_id": 54259,
        "name": "EUTELSAT 10B",
        "group": "eutelsat",
        "lat": 0.007412757144071274,
        "lon": -108.58978000764905,
        "alt_km": 35786.99758733191,
        "timestamp": "2025-12-25T09:48:51.957700+00:00",
        "meta_object_name": "EUTELSAT 10B",
        "meta_object_id": "2022-157A",
        "meta_epoch": "2025-12-24T21:42:21.617568",
        "meta_mean_motion": 1.00269971,
        "meta_eccentricity": 6.954e-05,
        "meta_inclination": 0.0597,
        "meta_ra_of_asc_node": 95.577,
        "meta_arg_of_pericenter": 57.2029,
        "meta_mean_anomaly": 276.5084,
        "meta_ephemeris_type": 0,
        "meta_classification_type": "U",
        "meta_norad_cat_id": 54259,
        "meta_element_set_no": 999,
        "meta_rev_at_epoch": 1127,
        "meta_bstar": 0,
        "meta_mean_motion_dot": 8.9e-07,
        "meta_mean_motion_ddot": 0,
        "tle_line1": "1 54259U 22157A   25358.90441687  .00000089  00000+0  00000+0 0  9999",
        "tle_line2": "2 54259   0.0597  95.5770 0000695  57.2029 276.5084  1.00269971 11274"
      },
      "geometry": {
        "type": "Point",
        "coordinates": [
          -108.58978000764905,
          0.007412757144071274
        ]
      }
    },
    {
      "type": "Feature",
      "properties": {
        "norad_id": 59346,
        "name": "EUTELSAT 36D",
        "group": "eutelsat",
        "lat": -0.035559864100448806,
        "lon": -82.73898146141805,
        "alt_km": 35783.90748893218,
        "timestamp": "2025-12-25T09:48:51.957712+00:00",
        "meta_object_name": "EUTELSAT 36D",
        "meta_object_id": "2024-059A",
        "meta_epoch": "2025-12-24T21:49:50.901024",
        "meta_mean_motion": 1.00275345,
        "meta_eccentricity": 6.342e-05,
        "meta_inclination": 0.0185,
        "meta_ra_of_asc_node": 36.8149,
        "meta_arg_of_pericenter": 305.8613,
        "meta_mean_anomaly": 114.3448,
        "meta_ephemeris_type": 0,
        "meta_classification_type": "U",
        "meta_norad_cat_id": 59346,
        "meta_element_set_no": 999,
        "meta_rev_at_epoch": 640,
        "meta_bstar": 0,
        "meta_mean_motion_dot": 1.77e-06,
        "meta_mean_motion_ddot": 0,
        "tle_line1": "1 59346U 24059A   25358.90961691  .00000177  00000+0  00000+0 0  9994",
        "tle_line2": "2 59346   0.0185  36.8149 0000634 305.8613 114.3448  1.00275345  6405"
      },
      "geometry": {
        "type": "Point",
        "coordinates": [
          -82.73898146141805,
          -0.035559864100448806
        ]
      }
    }
  ]
}